{"spkid": "50825504", "covariance": {"epoch": "2459106.5", "labels": ["e", "q", "tp", "node", "peri", "i"], "elements": [{"label": "e", "units": null, "value": ".1543711959867462", "title": "eccentricity", "sigma": 5.55795960648066e-08, "name": "e"}, {"units": "au", "title": "perihelion distance", "value": ".7654425033311967", "sigma": 5.17717211313212e-08, "name": "q", "label": "q"}, {"value": "2459079.104054663225", "title": "time of perihelion passage", "units": "TDB", "sigma": 8.93682993448478e-05, "name": "tp", "label": "tp"}, {"units": "deg", "value": "94.09657045984275", "title": "longitude of the ascending node", "sigma": 5.24496236564845e-06, "name": "om", "label": "node"}, {"units": "deg", "value": "351.7126952167278", "title": "argument of perihelion", "sigma": 8.19433382034229e-05, "name": "w", "label": "peri"}, {"label": "i", "title": "inclination", "value": "49.99106345405553", "units": "deg", "sigma": 1.80677372716599e-05, "name": "i"}], "data": [["3.089091498727065E-15", "-2.85484648608593E-15", "1.111243738745682E-12", "-2.695268046256878E-14", "9.040740925308189E-13", "1.947765741954624E-13"], ["-2.85484648608593E-15", "2.680311108899288E-15", "-1.304139127898575E-12", "1.892824617300193E-14", "-1.126392567375058E-12", "-1.492355972494878E-13"], ["1.111243738745682E-12", "-1.304139127898575E-12", "7.986692927790321E-9", "1.613286053375212E-11", "7.280074076289851E-9", "-2.48934981290449E-10"], ["-2.695268046256878E-14", "1.892824617300193E-14", "1.613286053375212E-11", "2.750963021706854E-11", "4.324918210564153E-12", "-5.642964006626156E-11"], ["9.040740925308189E-13", "-1.126392567375058E-12", "7.280074076289851E-9", "4.324918210564153E-12", "6.714710675920539E-9", "-2.505081708063928E-10"], ["1.947765741954624E-13", "-1.492355972494878E-13", "-2.48934981290449E-10", "-5.642964006626156E-11", "-2.505081708063928E-10", "3.264431301177273E-10"]]}, "elements": [{"name": "e", "sigma": "5.5907E-8", "title": "eccentricity", "value": ".1542473112133317", "units": null, "label": "e"}, {"label": "a", "sigma": "7.7981E-9", "name": "a", "value": ".9051141194642691", "title": "semi-major axis", "units": "au"}, {"units": "au", "value": ".7655027001956832", "title": "perihelion distance", "name": "q", "sigma": "5.1762E-8", "label": "q"}, {"label": "i", "units": "deg", "value": "49.99134794121916", "title": "inclination; angle with respect to x-y ecliptic plane", "sigma": "1.8069E-5", "name": "i"}, {"sigma": "5.2417E-6", "name": "om", "value": "94.08615958989651", "title": "longitude of the ascending node", "units": "deg", "label": "node"}, {"label": "peri", "value": "351.7439112636628", "title": "argument of perihelion", "units": "deg", "name": "w", "sigma": "8.2337E-5"}, {"title": "mean anomaly", "value": "268.0011761389633", "units": "deg", "sigma": "9.5096E-5", "name": "ma", "label": "M"}, {"units": "TDB", "value": "2461280.877262533330", "title": "time of perihelion passage", "name": "tp", "sigma": "8.3113E-5", "label": "tp"}, {"title": "sidereal orbital period", "value": "314.5237438655321", "units": "d", "name": "per", "sigma": "4.0647E-6", "label": "period"}, {"name": "n", "sigma": "1.4792E-8", "units": "deg/d", "title": "mean motion", "value": "1.14458767270019", "label": "n"}, {"label": "Q", "units": "au", "title": "aphelion distance", "value": "1.044725538732855", "name": "ad", "sigma": "9.0009E-9"}], "epoch": "2461200.5"}